[{"OBJECT_NAME":"STARLINK-33676","OBJECT_ID":"2025-065E","EPOCH":"2026-03-09T12:09:19.350144","MEAN_MOTION":15.27592571,"ECCENTRICITY":0.00018885,"INCLINATION":43.0032,"RA_OF_ASC_NODE":107.9671,"ARG_OF_PERICENTER":272.2095,"MEAN_ANOMALY":87.8541,"EPHEMERIS_TYPE":0,"CLASSIFICATION_TYPE":"U","NORAD_CAT_ID":63403,"ELEMENT_SET_NO":999,"REV_AT_EPOCH":5281,"BSTAR":0.00079493578,"MEAN_MOTION_DOT":0.00021686,"MEAN_MOTION_DDOT":0},{"OBJECT_NAME":"HERMES-5","OBJECT_ID":"2025-052BQ","EPOCH":"2026-03-09T22:33:51.245280","MEAN_MOTION":15.26210393,"ECCENTRICITY":0.0006071,"INCLINATION":97.4082,"RA_OF_ASC_NODE":324.1247,"ARG_OF_PERICENTER":124.4334,"MEAN_ANOMALY":235.7479,"EPHEMERIS_TYPE":0,"CLASSIFICATION_TYPE":"U","NORAD_CAT_ID":63834,"ELEMENT_SET_NO":999,"REV_AT_EPOCH":5480,"BSTAR":0.00068450239,"MEAN_MOTION_DOT":0.00017673,"MEAN_MOTION_DDOT":0}]
